[{"OBJECT_NAME":"STARLINK-31348","OBJECT_ID":"2024-044W","EPOCH":"2026-03-09T00:21:37.192320","MEAN_MOTION":15.27614686,"ECCENTRICITY":7.914e-5,"INCLINATION":42.9985,"RA_OF_ASC_NODE":64.0168,"ARG_OF_PERICENTER":240.0943,"MEAN_ANOMALY":119.9831,"EPHEMERIS_TYPE":0,"CLASSIFICATION_TYPE":"U","NORAD_CAT_ID":59172,"ELEMENT_SET_NO":999,"REV_AT_EPOCH":11400,"BSTAR":0.0010110982,"MEAN_MOTION_DOT":0.00027695,"MEAN_MOTION_DDOT":0},{"OBJECT_NAME":"JINJUSAT-1B","OBJECT_ID":"2025-052A","EPOCH":"2026-03-09T15:55:38.242848","MEAN_MOTION":15.30194857,"ECCENTRICITY":0.00055504,"INCLINATION":97.4113,"RA_OF_ASC_NODE":325.4613,"ARG_OF_PERICENTER":82.193,"MEAN_ANOMALY":277.9941,"EPHEMERIS_TYPE":0,"CLASSIFICATION_TYPE":"U","NORAD_CAT_ID":63210,"ELEMENT_SET_NO":999,"REV_AT_EPOCH":5486,"BSTAR":0.00068430401,"MEAN_MOTION_DOT":0.00019955,"MEAN_MOTION_DDOT":0}]
